STARLINK-3239           
1 49743U 21115V   26068.54728021 -.00000338  00000+0 -31408-5 0  9994
2 49743  53.2175 149.6935 0001248  81.7072 278.4062 15.08836358235511
YAM-8                   
1 63254U 25052AW  26068.73092778  .00007810  00000+0  47267-3 0  9993
2 63254  97.7023 329.5345 0002369 152.6796 207.4558 15.10898938 54245
